QIANFAN-25              
1 61558U 24185G   25286.93569881  .00000697  00000+0  41829-3 0  9995
2 61558  88.9756  84.9528 0010234 126.2851 233.9278 14.05822149 61109
QIANFAN-26              
1 61559U 24185H   25286.90601128  .00000366  00000+0  35301-3 0  9995
2 61559  88.9754  86.2048 0005678 173.4457 186.6785 13.77761213 60436
QIANFAN-27              
1 61560U 24185J   25286.94611304  .00000834  00000+0  33548-3 0  9999
2 61560  88.9753  83.9497 0009882 118.9976 241.2209 14.27216253 61637
QIANFAN-28              
1 61561U 24185K   25286.95610328  .00001238  00000+0  49493-3 0  9991
2 61561  88.9770  83.9470 0009002 118.4497 241.7605 14.27843271 61647
QIANFAN-29              
1 61562U 24185L   25286.89569895  .00000248  00000+0  36527-3 0  9991
2 61562  88.9731  87.4911 0009014 216.1888 143.8654 13.50980088 59711
QIANFAN-30              
1 61563U 24185M   25286.89938978  .00000242  00000+0  36186-3 0  9999
2 61563  88.9751  86.9931 0006947 195.9923 164.1009 13.49957534 59994
QIANFAN-31              
1 61564U 24185N   25286.99794420  .00000284  00000+0  37646-3 0  9991
2 61564  88.9736  86.8794 0006683 191.1481 168.9527 13.57930733 60055
QIANFAN-32              
1 61565U 24185P   25286.90094834  .00000236  00000+0  34911-3 0  9994
2 61565  88.9794  87.1090 0008005 228.0723 131.9747 13.50709037 59968
